EOSSAT-1                
1 55053U 23001AW  26068.73619225  .00007695  00000+0  24844-3 0  9992
2 55053  97.3357 130.2294 0011263 110.3168 249.9285 15.32339828176689
STARLINK-34724          
1 66442U 25259W   26067.95365030  .00027869  00000+0  10179-2 0  9998
2 66442  43.0058 278.9373 0002544 271.3973  88.6587 15.27595092 19377
